[{"OBJECT_NAME":"STARLINK-35585","OBJECT_ID":"2025-240AA","EPOCH":"2026-03-09T10:11:37.865184","MEAN_MOTION":15.30217853,"ECCENTRICITY":0.00016445,"INCLINATION":53.1589,"RA_OF_ASC_NODE":64.3324,"ARG_OF_PERICENTER":80.3548,"MEAN_ANOMALY":279.7639,"EPHEMERIS_TYPE":0,"CLASSIFICATION_TYPE":"U","NORAD_CAT_ID":66170,"ELEMENT_SET_NO":999,"REV_AT_EPOCH":2194,"BSTAR":0.00060128196,"MEAN_MOTION_DOT":0.00017501,"MEAN_MOTION_DDOT":0},{"OBJECT_NAME":"CZ-2D R\/B","OBJECT_ID":"2025-227B","EPOCH":"2026-03-09T22:11:26.043072","MEAN_MOTION":15.30393637,"ECCENTRICITY":0.00198129,"INCLINATION":80.1514,"RA_OF_ASC_NODE":267.3771,"ARG_OF_PERICENTER":270.3655,"MEAN_ANOMALY":89.5307,"EPHEMERIS_TYPE":0,"CLASSIFICATION_TYPE":"U","NORAD_CAT_ID":65946,"ELEMENT_SET_NO":999,"REV_AT_EPOCH":2254,"BSTAR":0.00032251975,"MEAN_MOTION_DOT":9.557e-5,"MEAN_MOTION_DDOT":0}]
